{
  "type": "FeatureCollection",
  "features": [
    {
      "type": "Feature",
      "properties": {
        "norad_id": 34641,
        "name": "COSMOS 2251 DEB",
        "group": "cosmos-2251-debris",
        "lat": -55.75036712103688,
        "lon": -99.50941925199815,
        "alt_km": 725.084327547952,
        "timestamp": "2025-12-26T13:39:19.374914+00:00",
        "meta_object_name": "COSMOS 2251 DEB",
        "meta_object_id": "1993-036XN",
        "meta_epoch": "2025-12-25T03:37:10.772832",
        "meta_mean_motion": 14.52080579,
        "meta_eccentricity": 0.00190938,
        "meta_inclination": 73.836,
        "meta_ra_of_asc_node": 57.9813,
        "meta_arg_of_pericenter": 330.5665,
        "meta_mean_anomaly": 58.546,
        "meta_ephemeris_type": 0,
        "meta_classification_type": "U",
        "meta_norad_cat_id": 34641,
        "meta_element_set_no": 999,
        "meta_rev_at_epoch": 88436,
        "meta_bstar": 0.00073840717,
        "meta_mean_motion_dot": 2.967e-05,
        "meta_mean_motion_ddot": 0,
        "tle_line1": "1 34641U 93036XN  25359.15081913  .00002967  00000+0  73841-3 0  9990",
        "tle_line2": "2 34641  73.8360  57.9813 0019093 330.5665  58.5460 14.52080579884368"
      },
      "geometry": {
        "type": "Point",
        "coordinates": [
          -99.50941925199815,
          -55.75036712103688
        ]
      }
    },
    {
      "type": "Feature",
      "properties": {
        "norad_id": 34642,
        "name": "COSMOS 2251 DEB",
        "group": "cosmos-2251-debris",
        "lat": -25.567722241892874,
        "lon": 143.73427499274098,
        "alt_km": 858.6690784983257,
        "timestamp": "2025-12-26T13:39:19.374924+00:00",
        "meta_object_name": "COSMOS 2251 DEB",
        "meta_object_id": "1993-036XP",
        "meta_epoch": "2025-12-26T06:08:43.255680",
        "meta_mean_motion": 13.99010104,
        "meta_eccentricity": 0.02064184,
        "meta_inclination": 74.0043,
        "meta_ra_of_asc_node": 316.3883,
        "meta_arg_of_pericenter": 132.9965,
        "meta_mean_anomaly": 295.9287,
        "meta_ephemeris_type": 0,
        "meta_classification_type": "U",
        "meta_norad_cat_id": 34642,
        "meta_element_set_no": 999,
        "meta_rev_at_epoch": 85482,
        "meta_bstar": 0.00085530032,
        "meta_mean_motion_dot": 1.462e-05,
        "meta_mean_motion_ddot": 0,
        "tle_line1": "1 34642U 93036XP  25360.25605620  .00001462  00000+0  85530-3 0  9998",
        "tle_line2": "2 34642  74.0043 316.3883 0206418 132.9965 295.9287 13.99010104854824"
      },
      "geometry": {
        "type": "Point",
        "coordinates": [
          143.73427499274098,
          -25.567722241892874
        ]
      }
    },
    {
      "type": "Feature",
      "properties": {
        "norad_id": 34671,
        "name": "COSMOS 2251 DEB",
        "group": "cosmos-2251-debris",
        "lat": 8.872356643732799,
        "lon": 110.15941095049477,
        "alt_km": 678.9777006071936,
        "timestamp": "2025-12-26T13:39:19.374935+00:00",
        "meta_object_name": "COSMOS 2251 DEB",
        "meta_object_id": "1993-036XR",
        "meta_epoch": "2025-12-24T07:45:05.041728",
        "meta_mean_motion": 14.67129194,
        "meta_eccentricity": 0.00105725,
        "meta_inclination": 74.0275,
        "meta_ra_of_asc_node": 111.9321,
        "meta_arg_of_pericenter": 193.4023,
        "meta_mean_anomaly": 198.0562,
        "meta_ephemeris_type": 0,
        "meta_classification_type": "U",
        "meta_norad_cat_id": 34671,
        "meta_element_set_no": 999,
        "meta_rev_at_epoch": 88467,
        "meta_bstar": 0.0017522099,
        "meta_mean_motion_dot": 9.84e-05,
        "meta_mean_motion_ddot": 0,
        "tle_line1": "1 34671U 93036XR  25358.32297502  .00009840  00000+0  17522-2 0  9994",
        "tle_line2": "2 34671  74.0275 111.9321 0010572 193.4023 198.0562 14.67129194884671"
      },
      "geometry": {
        "type": "Point",
        "coordinates": [
          110.15941095049477,
          8.872356643732799
        ]
      }
    },
    {
      "type": "Feature",
      "properties": {
        "norad_id": 34672,
        "name": "COSMOS 2251 DEB",
        "group": "cosmos-2251-debris",
        "lat": 67.96223790803047,
        "lon": 55.17330769713224,
        "alt_km": 771.0027209153277,
        "timestamp": "2025-12-26T13:39:19.374946+00:00",
        "meta_object_name": "COSMOS 2251 DEB",
        "meta_object_id": "1993-036XS",
        "meta_epoch": "2025-12-23T01:39:52.431840",
        "meta_mean_motion": 14.36424251,
        "meta_eccentricity": 0.00243004,
        "meta_inclination": 74.0343,
        "meta_ra_of_asc_node": 286.6106,
        "meta_arg_of_pericenter": 356.389,
        "meta_mean_anomaly": 18.9966,
        "meta_ephemeris_type": 0,
        "meta_classification_type": "U",
        "meta_norad_cat_id": 34672,
        "meta_element_set_no": 999,
        "meta_rev_at_epoch": 65326,
        "meta_bstar": 0.00025150328,
        "meta_mean_motion_dot": 7.13e-06,
        "meta_mean_motion_ddot": 0,
        "tle_line1": "1 34672U 93036XS  25357.06935685  .00000713  00000+0  25150-3 0  9993",
        "tle_line2": "2 34672  74.0343 286.6106 0024300 356.3890  18.9966 14.36424251653260"
      },
      "geometry": {
        "type": "Point",
        "coordinates": [
          55.17330769713224,
          67.96223790803047
        ]
      }
    },
    {
      "type": "Feature",
      "properties": {
        "norad_id": 34678,
        "name": "COSMOS 2251 DEB",
        "group": "cosmos-2251-debris",
        "lat": -27.113345158357966,
        "lon": -27.876913476436833,
        "alt_km": 786.3091721560695,
        "timestamp": "2025-12-26T13:39:19.374956+00:00",
        "meta_object_name": "COSMOS 2251 DEB",
        "meta_object_id": "1993-036XY",
        "meta_epoch": "2025-12-26T00:40:23.592576",
        "meta_mean_motion": 14.30067313,
        "meta_eccentricity": 0.00248357,
        "meta_inclination": 74.0378,
        "meta_ra_of_asc_node": 341.533,
        "meta_arg_of_pericenter": 26.614,
        "meta_mean_anomaly": 41.7325,
        "meta_ephemeris_type": 0,
        "meta_classification_type": "U",
        "meta_norad_cat_id": 34678,
        "meta_element_set_no": 999,
        "meta_rev_at_epoch": 87569,
        "meta_bstar": 3.582597e-05,
        "meta_mean_motion_dot": 6.7e-07,
        "meta_mean_motion_ddot": 0,
        "tle_line1": "1 34678U 93036XY  25360.02805084  .00000067  00000+0  35826-4 0  9992",
        "tle_line2": "2 34678  74.0378 341.5330 0024835  26.6140  41.7325 14.30067313875694"
      },
      "geometry": {
        "type": "Point",
        "coordinates": [
          -27.876913476436833,
          -27.113345158357966
        ]
      }
    },
    {
      "type": "Feature",
      "properties": {
        "norad_id": 34680,
        "name": "COSMOS 2251 DEB",
        "group": "cosmos-2251-debris",
        "lat": -21.7243098456829,
        "lon": 96.90636466064133,
        "alt_km": 698.5754466490598,
        "timestamp": "2025-12-26T13:39:19.374966+00:00",
        "meta_object_name": "COSMOS 2251 DEB",
        "meta_object_id": "1993-036YA",
        "meta_epoch": "2025-12-26T07:19:38.421984",
        "meta_mean_motion": 14.60764123,
        "meta_eccentricity": 0.00061645,
        "meta_inclination": 74.0438,
        "meta_ra_of_asc_node": 103.9554,
        "meta_arg_of_pericenter": 206.4275,
        "meta_mean_anomaly": 184.991,
        "meta_ephemeris_type": 0,
        "meta_classification_type": "U",
        "meta_norad_cat_id": 34680,
        "meta_element_set_no": 999,
        "meta_rev_at_epoch": 88526,
        "meta_bstar": 0.0011337033,
        "meta_mean_motion_dot": 5.509e-05,
        "meta_mean_motion_ddot": 0,
        "tle_line1": "1 34680U 93036YA  25360.30530581  .00005509  00000+0  11337-2 0  9998",
        "tle_line2": "2 34680  74.0438 103.9554 0006164 206.4275 184.9910 14.60764123885264"
      },
      "geometry": {
        "type": "Point",
        "coordinates": [
          96.90636466064133,
          -21.7243098456829
        ]
      }
    },
    {
      "type": "Feature",
      "properties": {
        "norad_id": 34681,
        "name": "COSMOS 2251 DEB",
        "group": "cosmos-2251-debris",
        "lat": -67.21654021025537,
        "lon": 125.92829458988646,
        "alt_km": 617.266062407778,
        "timestamp": "2025-12-26T13:39:19.374976+00:00",
        "meta_object_name": "COSMOS 2251 DEB",
        "meta_object_id": "1993-036YB",
        "meta_epoch": "2025-12-26T05:07:13.597248",
        "meta_mean_motion": 14.83514695,
        "meta_eccentricity": 0.00256931,
        "meta_inclination": 74.0621,
        "meta_ra_of_asc_node": 263.7595,
        "meta_arg_of_pericenter": 318.4734,
        "meta_mean_anomaly": 196.8058,
        "meta_ephemeris_type": 0,
        "meta_classification_type": "U",
        "meta_norad_cat_id": 34681,
        "meta_element_set_no": 999,
        "meta_rev_at_epoch": 89470,
        "meta_bstar": 0.0012321066,
        "meta_mean_motion_dot": 0.00010178,
        "meta_mean_motion_ddot": 0,
        "tle_line1": "1 34681U 93036YB  25360.21335182  .00010178  00000+0  12321-2 0  9991",
        "tle_line2": "2 34681  74.0621 263.7595 0025693 318.4734 196.8058 14.83514695894707"
      },
      "geometry": {
        "type": "Point",
        "coordinates": [
          125.92829458988646,
          -67.21654021025537
        ]
      }
    }
  ]
}